*******************************************************************************
JPL/HORIZONS                      (2021 BO)                2021-May-28 11:47:10
Rec #:50526199 (+COV) Soln.date: 2021-Apr-15_23:24:02        # obs: 40 (1 days)
 
IAU76/J2000 helio. ecliptic osc. elements (au, days, deg., period=Julian yrs):
 
  EPOCH=  2459232.5 ! 2021-Jan-18.00 (TDB)         Residual RMS= .30684
   EC= .1770784882578265   QR= .834042740880674    TP= 2459305.8331633168
   OM= 297.803853476591    W=  271.0927903021984   IN= 2.154462881414356
   A= 1.01351432546095     MA= 289.1630822812534   ADIST= 1.192985910041226
   PER= 1.02036            N= .965960182           ANGMOM= .017044266
   DAN= .97843             DDN= .98506             L= 208.8974266
   B= -2.1540708           MOID= .00021339         TP= 2021-Apr-01.3331633168
 
Asteroid physical parameters (km, seconds, rotational period in hours):
   GM= n.a.                RAD= n.a.               ROTPER= n.a.
   H= 32.95                G= .150                 B-V= n.a.
                           ALBEDO= n.a.            STYP= n.a.
 
ASTEROID comments: 
1: soln ref.= JPL#4, OCC=4
2: source=ORB
*******************************************************************************
 
 
*******************************************************************************
Ephemeris / WWW_USER Fri May 28 11:47:10 2021 Pasadena, USA      / Horizons    
*******************************************************************************
Target body name: (2021 BO)                       {source: JPL#4}
Center body name: Solar System Barycenter (0)     {source: DE441}
Center-site name: BODYCENTRIC
*******************************************************************************
Start time      : A.D. 2014-Jan-01 00:00:00.0000 UT      
Stop  time      : A.D. 2023-Jan-01 00:00:00.0000 UT      
Step-size       : 1440 minutes
*******************************************************************************
Target pole/equ : No model available
Target radii    : (unavailable)                                                
Center geodetic : 0.00000000,0.00000000,0.0000000 {E-lon(deg),Lat(deg),Alt(km)}
Center cylindric: 0.00000000,0.00000000,0.0000000 {E-lon(deg),Dxy(km),Dz(km)}
Center pole/equ : ICRF
Center radii    : (undefined)                                                  
Target primary  : Sun
Vis. interferer : None
Rel. light bend : Sun                             {source: DE441}
Rel. lght bnd GM: 1.3271E+11 km^3/s^2                                          
Small-body perts: Yes                             {source: SB441-N16}
Atmos refraction: NO (AIRLESS)
RA format       : DEG
Time format     : CAL 
EOP file        : eop.210527.p210818                                           
EOP coverage    : DATA-BASED 1962-JAN-20 TO 2021-MAY-27. PREDICTS-> 2021-AUG-17
Units conversion: 1 au= 149597870.700 km, c= 299792.458 km/s, 1 day= 86400.0 s 
Table cut-offs 1: Elevation (-90.0deg=NO ),Airmass     n.a.    , Daylight (NO )
Table cut-offs 2: Solar elongation (  0.0,180.0=NO ),Local Hour Angle( 0.0=NO )
Table cut-offs 3: RA/DEC angular rate (     0.0=NO )                           
*******************************************************************************
Initial IAU76/J2000 heliocentric ecliptic osculating elements (au, days, deg.):
  EPOCH=  2459232.5 ! 2021-Jan-18.00 (TDB)         Residual RMS= .30684        
   EC= .1770784882578265   QR= .834042740880674    TP= 2459305.8331633168      
   OM= 297.803853476591    W=  271.0927903021984   IN= 2.154462881414356       
  Equivalent ICRF heliocentric cartesian coordinates (au, au/d):
   X=-4.598113724061462E-01  Y= 7.992020246168190E-01  Z= 3.464794118324506E-01
  VX=-1.385715622070537E-02 VY=-9.641345052066468E-03 VZ=-4.889011119406901E-03
Asteroid physical parameters (km, seconds, rotational period in hours):        
   GM= n.a.                RAD= n.a.               ROTPER= n.a.                
   H= 32.95                G= .150                 B-V= n.a.                   
                           ALBEDO= n.a.            STYP= n.a.                  
*******************************************************************************
 Date__(UT)__HR:MN                delta     GlxLon     GlxLat
*************************************************************
$$SOE
 2015-Jun-19 00:00     1.6524450404E+08  58.502042 -52.471015
 2015-Jun-20 00:00     1.6556883149E+08  59.646707 -52.874523
 2015-Jun-21 00:00     1.6588919996E+08  60.808015 -53.265327
 2015-Jun-22 00:00     1.6620556278E+08  61.985874 -53.643218
 2015-Jun-23 00:00     1.6651787452E+08  63.180147 -54.007988
 2015-Jun-24 00:00     1.6682609087E+08  64.390646 -54.359432
 2015-Jun-25 00:00     1.6713016869E+08  65.617134 -54.697343
 2015-Jun-26 00:00     1.6743006597E+08  66.859317 -55.021520
 2015-Jun-27 00:00     1.6772574177E+08  68.116846 -55.331764
 2015-Jun-28 00:00     1.6801715627E+08  69.389316 -55.627883
 2015-Jun-29 00:00     1.6830427068E+08  70.676261 -55.909688
 2015-Jun-30 00:00     1.6858704724E+08  71.977157 -56.176999
 2015-Jul-01 00:00     1.6886545241E+08  73.291435 -56.429647
 2015-Jul-02 00:00     1.6913944401E+08  74.618420 -56.667462
 2015-Jul-03 00:00     1.6940899052E+08  75.957423 -56.890296
 2015-Jul-04 00:00     1.6967405812E+08  77.307682 -57.098006
 2015-Jul-05 00:00     1.6993461394E+08  78.668381 -57.290463
 2015-Jul-06 00:00     1.7019062602E+08  80.038645 -57.467554
 2015-Jul-07 00:00     1.7044206329E+08  81.417554 -57.629177
 2015-Jul-08 00:00     1.7068889557E+08  82.804137 -57.775246
 2015-Jul-09 00:00     1.7093109355E+08  84.197382 -57.905693
 2015-Jul-10 00:00     1.7116862875E+08  85.596237 -58.020465
 2015-Jul-11 00:00     1.7140147354E+08  86.999618 -58.119526
 2015-Jul-12 00:00     1.7162960110E+08  88.406416 -58.202861
 2015-Jul-13 00:00     1.7185298539E+08  89.815499 -58.270468
 2015-Jul-14 00:00     1.7207160117E+08  91.225724 -58.322367
 2015-Jul-15 00:00     1.7228542397E+08  92.635940 -58.358594
 2015-Jul-16 00:00     1.7249443008E+08  94.045000 -58.379204
 2015-Jul-17 00:00     1.7269859651E+08  95.451770 -58.384268
 2015-Jul-18 00:00     1.7289790101E+08  96.855136 -58.373876
 2015-Jul-19 00:00     1.7309232204E+08  98.254016 -58.348141
 2015-Jul-20 00:00     1.7328183878E+08  99.647369 -58.307195
 2015-Jul-21 00:00     1.7346643106E+08 101.034204 -58.251203
 2015-Jul-22 00:00     1.7364607943E+08 102.413572 -58.180364
 2015-Jul-23 00:00     1.7382076508E+08 103.784550 -58.094925
 2015-Jul-24 00:00     1.7399046985E+08 105.146208 -57.995172
 2015-Jul-25 00:00     1.7415517624E+08 106.497571 -57.881419
 2015-Jul-26 00:00     1.7431486738E+08 107.837615 -57.753964
 2015-Jul-27 00:00     1.7446952700E+08 109.165324 -57.613062
 2015-Jul-28 00:00     1.7461913948E+08 110.479764 -57.458915
 2015-Jul-29 00:00     1.7476368977E+08 111.780143 -57.291701
 2015-Jul-30 00:00     1.7490316343E+08 113.065822 -57.111600
 2015-Jul-31 00:00     1.7503754661E+08 114.336278 -56.918817
 2015-Aug-01 00:00     1.7516682602E+08 115.591075 -56.713588
 2015-Aug-02 00:00     1.7529098896E+08 116.829836 -56.496174
 2015-Aug-03 00:00     1.7541002327E+08 118.052231 -56.266851
 2015-Aug-04 00:00     1.7552391737E+08 119.257972 -56.025905
 2015-Aug-05 00:00     1.7563266020E+08 120.446816 -55.773627
 2015-Aug-06 00:00     1.7573624127E+08 121.618560 -55.510307
 2015-Aug-07 00:00     1.7583465059E+08 122.773046 -55.236238
 2015-Aug-08 00:00     1.7592787872E+08 123.910159 -54.951706
 2015-Aug-09 00:00     1.7601591674E+08 125.029825 -54.656997
 2015-Aug-10 00:00     1.7609875624E+08 126.132011 -54.352392
 2015-Aug-11 00:00     1.7617638934E+08 127.216722 -54.038167
 2015-Aug-12 00:00     1.7624880865E+08 128.283997 -53.714593
 2015-Aug-13 00:00     1.7631600727E+08 129.333911 -53.381936
 2015-Aug-14 00:00     1.7637797884E+08 130.366569 -53.040455
 2015-Aug-15 00:00     1.7643471745E+08 131.382105 -52.690405
 2015-Aug-16 00:00     1.7648621772E+08 132.380678 -52.332033
 2015-Aug-17 00:00     1.7653247472E+08 133.362470 -51.965580
 2015-Aug-18 00:00     1.7657348403E+08 134.327685 -51.591280
 2015-Aug-19 00:00     1.7660924172E+08 135.276546 -51.209360
 2015-Aug-20 00:00     1.7663974431E+08 136.209292 -50.820041
 2015-Aug-21 00:00     1.7666498883E+08 137.126176 -50.423536
 2015-Aug-22 00:00     1.7668497276E+08 138.027463 -50.020052
 2015-Aug-23 00:00     1.7669969406E+08 138.913432 -49.609787
 2015-Aug-24 00:00     1.7670915119E+08 139.784368 -49.192935
 2015-Aug-25 00:00     1.7671334305E+08 140.640564 -48.769680
 2015-Aug-26 00:00     1.7671226903E+08 141.482318 -48.340202
 2015-Aug-27 00:00     1.7670592898E+08 142.309936 -47.904672
 2015-Aug-28 00:00     1.7669432324E+08 143.123725 -47.463256
 2015-Aug-29 00:00     1.7667745261E+08 143.923993 -47.016111
 2015-Aug-30 00:00     1.7665531835E+08 144.711054 -46.563389
 2015-Aug-31 00:00     1.7662792223E+08 145.485217 -46.105238
 2015-Sep-01 00:00     1.7659526647E+08 146.246796 -45.641795
 2015-Sep-02 00:00     1.7655735376E+08 146.996099 -45.173196
 2015-Sep-03 00:00     1.7651418729E+08 147.733435 -44.699566
 2015-Sep-04 00:00     1.7646577072E+08 148.459111 -44.221029
 2015-Sep-05 00:00     1.7641210819E+08 149.173431 -43.737701
 2015-Sep-06 00:00     1.7635320433E+08 149.876695 -43.249693
 2015-Sep-07 00:00     1.7628906427E+08 150.569199 -42.757110
 2015-Sep-08 00:00     1.7621969360E+08 151.251237 -42.260053
 2015-Sep-09 00:00     1.7614509845E+08 151.923098 -41.758619
 2015-Sep-10 00:00     1.7606528541E+08 152.585065 -41.252898
 2015-Sep-11 00:00     1.7598026159E+08 153.237420 -40.742976
 2015-Sep-12 00:00     1.7589003462E+08 153.880438 -40.228936
 2015-Sep-13 00:00     1.7579461263E+08 154.514388 -39.710855
 2015-Sep-14 00:00     1.7569400427E+08 155.139537 -39.188807
 2015-Sep-15 00:00     1.7558821871E+08 155.756145 -38.662862
